NORAD_CAT_ID,OBJECT_NAME,OBJECT_TYPE,EPOCH,MEAN_MOTION,ECCENTRICITY,INCLINATION,RA_OF_ASC_NODE,ARG_OF_PERICENTER,MEAN_ANOMALY,BSTAR,MEAN_MOTION_DOT,MEAN_MOTION_DDOT,TLE_LINE0,TLE_LINE1,TLE_LINE2,SEMIMAJOR_AXIS,PERIOD,APOGEE,PERIGEE,DECAYED
51463.0,STARLINK-3419,PAYLOAD,2023-05-03 02:46:03,15.08844715,5.6e-05,53.2162,274.9259,73.5542,286.5512,0.00017958,2.572e-05,0.0,0 STARLINK-3419,1 51463U 22010H   23123.11531718  .00002572  00000-0  17958-3 0  9991,2 51463  53.2162 274.9259 0000560  73.5542 286.5512 15.08844715 70026,6917.866,95.437,540.118,539.344,0.0
51463.0,STARLINK-3419,PAYLOAD,2023-05-03 13:53:45,15.08834896,7.64e-05,53.2155,272.8462,98.6904,261.4175,-3.1647e-05,-7.91e-06,0.0,0 STARLINK-3419,1 51463U 22010H   23123.57900219 -.00000791  00000-0 -31647-4 0  9992,2 51463  53.2155 272.8462 0000764  98.6904 261.4175 15.08834896 70090,6917.896,95.438,540.29,539.232,0.0
51463.0,STARLINK-3419,PAYLOAD,2023-05-03 15:29:08,15.08836168,7.52e-05,53.2155,272.5491,96.1051,264.0027,-8.0898e-06,-4.16e-06,0.0,0 STARLINK-3419,1 51463U 22010H   23123.64524191 -.00000416  00000-0 -80898-5 0  9998,2 51463  53.2155 272.5491 0000752  96.1051 264.0027 15.08836168 69358,6917.892,95.438,540.277,539.237,0.0
51463.0,STARLINK-3419,PAYLOAD,2023-05-04 13:44:32,15.08839963,7.55e-05,53.2157,268.3869,94.7439,265.3639,7.2206e-05,8.62e-06,0.0,0 STARLINK-3419,1 51463U 22010H   23124.57260136  .00000862  00000-0  72206-4 0  9993,2 51463  53.2157 268.3869 0000755  94.7439 265.3639 15.08839963 69493,6917.881,95.438,540.268,539.223,0.0
51463.0,STARLINK-3419,PAYLOAD,2023-05-04 20:06:05,15.08847777,7.67e-05,53.2163,267.1952,90.4703,269.6377,0.00022317,3.267e-05,0.0,0 STARLINK-3419,1 51463U 22010H   23124.83755858  .00003267  00000-0  22317-3 0  9991,2 51463  53.2163 267.1952 0000767  90.4703 269.6377 15.08847777 70287,6917.857,95.437,540.252,539.191,0.0
51463.0,STARLINK-3419,PAYLOAD,2023-05-05 08:49:10,15.08836793,9.04e-05,53.2163,264.8149,68.2168,291.892,0.00014502,2.021e-05,0.0,0 STARLINK-3419,1 51463U 22010H   23125.36748608  .00002021  00000-0  14502-3 0  9999,2 51463  53.2163 264.8149 0000904  68.2168 291.8920 15.08836793 70366,6917.89,95.438,540.381,539.13,0.0
51463.0,STARLINK-3419,PAYLOAD,2023-05-05 16:46:06,15.08840076,8.08e-05,53.2165,263.3278,71.7968,288.3112,0.00015422,2.168e-05,0.0,0 STARLINK-3419,1 51463U 22010H   23125.69868497  .00002168  00000-0  15422-3 0  9998,2 51463  53.2165 263.3278 0000808  71.7968 288.3112 15.08840076 69669,6917.88,95.438,540.304,539.186,0.0
51463.0,STARLINK-3419,PAYLOAD,2023-05-06 13:26:07,15.08849658,8.15e-05,53.2165,259.4647,65.233,294.8747,0.00036634,5.549e-05,0.0,0 STARLINK-3419,1 51463U 22010H   23126.55980399  .00005549  00000-0  36634-3 0  9994,2 51463  53.2165 259.4647 0000815  65.2330 294.8747 15.08849658 69799,6917.851,95.437,540.28,539.152,0.0
51463.0,STARLINK-3419,PAYLOAD,2023-05-07 02:09:11,15.08845373,5.96e-05,53.2159,257.0832,93.8575,266.2485,0.00017357,2.476e-05,0.0,0 STARLINK-3419,1 51463U 22010H   23127.08972121  .00002476  00000-0  17357-3 0  9994,2 51463  53.2159 257.0832 0000596  93.8575 266.2485 15.08845373 70622,6917.864,95.437,540.141,539.317,0.0
51463.0,STARLINK-3419,PAYLOAD,2023-05-07 13:16:54,15.08837674,7.61e-05,53.2157,255.0023,122.2004,237.9062,7.1217e-05,8.46e-06,0.0,0 STARLINK-3419,1 51463U 22010H   23127.55340374  .00000846  00000-0  71217-4 0  9990,2 51463  53.2157 255.0023 0000761 122.2004 237.9062 15.08837674 69942,6917.887,95.438,540.279,539.226,0.0
51463.0,STARLINK-3419,PAYLOAD,2023-05-07 14:52:17,15.08841485,9e-05,53.2163,254.7029,131.2014,228.9056,0.00012475,1.698e-05,0.0,0 STARLINK-3419,1 51463U 22010H   23127.61964337  .00001698  00000-0  12475-3 0  9994,2 51463  53.2163 254.7029 0000900 131.2014 228.9056 15.08841485 69956,6917.876,95.437,540.363,539.118,0.0
51463.0,STARLINK-3419,PAYLOAD,2023-05-08 01:59:59,15.08841505,7.35e-05,53.2158,252.624,125.5677,234.5383,0.00019608,2.834e-05,0.0,0 STARLINK-3419,1 51463U 22010H   23128.08332559  .00002834  00000-0  19608-3 0  9999,2 51463  53.2158 252.6240 0000735 125.5677 234.5383 15.08841505 70770,6917.876,95.437,540.249,539.232,0.0
51463.0,STARLINK-3419,PAYLOAD,2023-05-08 14:43:04,15.08847603,8.1e-05,53.2156,250.2474,86.2817,273.8267,0.00033192,5e-05,0.0,0 STARLINK-3419,1 51463U 22010H   23128.61324557  .00005000  00000-0  33192-3 0  9999,2 51463  53.2156 250.2474 0000810  86.2817 273.8267 15.08847603 70103,6917.857,95.437,540.282,539.162,0.0
51463.0,STARLINK-3419,PAYLOAD,2023-05-09 12:58:28,15.08840035,7.31e-05,53.2162,246.0836,85.0735,275.0341,0.0001542,2.167e-05,0.0,0 STARLINK-3419,1 51463U 22010H   23129.54060892  .00002167  00000-0  15420-3 0  9996,2 51463  53.2162 246.0836 0000731  85.0735 275.0341 15.08840035 70247,6917.88,95.438,540.251,539.24,0.0
51463.0,STARLINK-3419,PAYLOAD,2023-05-10 11:13:52,15.08837857,8.01e-05,53.2158,241.9209,70.9837,289.1242,5.9703e-05,6.63e-06,0.0,0 STARLINK-3419,1 51463U 22010H   23130.46797022  .00000663  00000-0  59703-4 0  9993,2 51463  53.2158 241.9209 0000801  70.9837 289.1242 15.08837857 70383,6917.887,95.438,540.306,539.198,0.0
51463.0,STARLINK-3419,PAYLOAD,2023-05-10 14:24:38,15.08844517,8.63e-05,53.216,241.3258,71.187,288.9215,4.2721e-05,3.92e-06,0.0,0 STARLINK-3419,1 51463U 22010H   23130.60044643  .00000392  00000-0  42721-4 0  9994,2 51463  53.2160 241.3258 0000863  71.1870 288.9215 15.08844517 70403,6917.867,95.437,540.329,539.135,0.0
51463.0,STARLINK-3419,PAYLOAD,2023-05-11 11:04:39,15.08840065,9.38e-05,53.2171,237.4634,72.2394,287.8701,7.694e-05,9.37e-06,0.0,0 STARLINK-3419,1 51463U 22010H   23131.46156883  .00000937  00000-0  76940-4 0  9994,2 51463  53.2171 237.4634 0000938  72.2394 287.8701 15.08840065 70531,6917.88,95.438,540.394,539.096,0.0
51463.0,STARLINK-3419,PAYLOAD,2023-05-11 14:15:25,15.08840533,9.2e-05,53.2172,236.8677,74.3739,285.7355,7.2911e-05,8.73e-06,0.0,0 STARLINK-3419,1 51463U 22010H   23131.59404841  .00000873  00000-0  72911-4 0  9991,2 51463  53.2172 236.8677 0000920  74.3739 285.7355 15.08840533 70553,6917.879,95.438,540.38,539.107,0.0
51463.0,STARLINK-3419,PAYLOAD,2023-05-11 23:47:44,15.08839691,0.0001068,53.2168,235.0837,80.2776,279.8337,4.3486e-05,4.04e-06,0.0,0 STARLINK-3419,1 51463U 22010H   23131.99148861  .00000404  00000-0  43486-4 0  9997,2 51463  53.2168 235.0837 0001068  80.2776 279.8337 15.08839691 70612,6917.881,95.438,540.485,539.008,0.0
51463.0,STARLINK-3419,PAYLOAD,2023-05-13 12:21:36,15.08849706,7.98e-05,53.2161,228.2449,87.7398,272.3686,4.9215e-05,4.96e-06,0.0,0 STARLINK-3419,1 51463U 22010H   23133.51500493  .00000496  00000-0  49215-4 0  9997,2 51463  53.2161 228.2449 0000798  87.7398 272.3686 15.08849706 70847,6917.851,95.437,540.268,539.164,0.0
51463.0,STARLINK-3419,PAYLOAD,2023-05-13 13:56:59,15.08852698,8.65e-05,53.2167,227.9465,86.5569,273.5522,8.0677e-05,9.97e-06,0.0,0 STARLINK-3419,1 51463U 22010H   23133.58124219  .00000997  00000-0  80677-4 0  9995,2 51463  53.2167 227.9465 0000865  86.5569 273.5522 15.08852698 71600,6917.842,95.437,540.305,539.108,0.0
51463.0,STARLINK-3419,PAYLOAD,2023-05-13 23:29:18,15.08843223,9.89e-05,53.2174,226.1609,74.6311,285.479,-2.3415e-05,-6.6e-06,0.0,0 STARLINK-3419,1 51463U 22010H   23133.97868605 -.00000660  00000-0 -23415-4 0  9998,2 51463  53.2174 226.1609 0000989  74.6311 285.4790 15.08843223 71668,6917.871,95.437,540.42,539.051,0.0
51463.0,STARLINK-3419,PAYLOAD,2023-05-14 12:12:24,15.08835653,0.0001154,53.2175,223.778,118.0611,242.0498,5.5184e-06,-2e-06,0.0,0 STARLINK-3419,1 51463U 22010H   23134.50861416 -.00000200  00000-0  55184-5 0  9999,2 51463  53.2175 223.7780 0001154 118.0611 242.0498 15.08835653 71744,6917.894,95.438,540.557,538.96,0.0
51463.0,STARLINK-3419,PAYLOAD,2023-05-15 12:03:11,15.08842879,9.29e-05,53.2167,219.3218,91.2779,268.832,-9.8643e-06,-4.45e-06,0.0,0 STARLINK-3419,1 51463U 22010H   23135.50221214 -.00000445  00000-0 -98643-5 0  9995,2 51463  53.2167 219.3218 0000929  91.2779 268.8320 15.08842879 71140,6917.872,95.437,540.379,539.094,0.0
51463.0,STARLINK-3419,PAYLOAD,2023-05-16 11:53:58,15.08837717,9.74e-05,53.2164,214.8623,88.5775,271.5329,7.4977e-05,9.06e-06,0.0,0 STARLINK-3419,1 51463U 22010H   23136.49581545  .00000906  00000-0  74977-4 0  9993,2 51463  53.2164 214.8623 0000974  88.5775 271.5329 15.08837717 71293,6917.887,95.438,540.426,539.079,0.0
51463.0,STARLINK-3419,PAYLOAD,2023-05-16 15:04:44,15.08839214,0.0001004,53.2165,214.2666,92.137,267.9737,8.3615e-05,1.043e-05,0.0,0 STARLINK-3419,1 51463U 22010H   23136.62829421  .00001043  00000-0  83615-4 0  9998,2 51463  53.2165 214.2666 0001004  92.1370 267.9737 15.08839214 72064,6917.883,95.438,540.442,539.053,0.0
51463.0,STARLINK-3419,PAYLOAD,2023-05-17 21:17:04,15.08837666,0.0001062,53.2165,208.6152,94.1134,265.998,4.355e-05,4.05e-06,0.0,0 STARLINK-3419,1 51463U 22010H   23137.88685643  .00000405  00000-0  43550-4 0  9998,2 51463  53.2165 208.6152 0001062  94.1134 265.9980 15.08837666 71500,6917.888,95.438,540.487,539.018,0.0
51463.0,STARLINK-3419,PAYLOAD,2023-05-18 13:10:55,15.08836666,0.0001134,53.217,205.6414,84.9307,275.1815,3.7672e-05,3.12e-06,0.0,0 STARLINK-3419,1 51463U 22010H   23138.54925892  .00000312  00000-0  37672-4 0  9990,2 51463  53.2170 205.6414 0001134  84.9307 275.1815 15.08836666 71603,6917.891,95.438,540.54,538.971,0.0
51463.0,STARLINK-3419,PAYLOAD,2023-05-18 14:46:19,15.08835854,0.0001178,53.2172,205.3449,84.1332,275.9795,2.8502e-05,1.66e-06,0.0,0 STARLINK-3419,1 51463U 22010H   23138.61550000  .00000166  00000-0  28502-4 0  9992,2 51463  53.2172 205.3449 0001178  84.1332 275.9795 15.08835854 71612,6917.893,95.438,540.573,538.943,0.0
51463.0,STARLINK-3419,PAYLOAD,2023-05-19 03:29:24,15.08838358,0.0001211,53.2174,202.9659,84.7049,275.4081,3.3729e-05,2.49e-06,0.0,0 STARLINK-3419,1 51463U 22010H   23139.14541920  .00000249  00000-0  33729-4 0  9991,2 51463  53.2174 202.9659 0001211  84.7049 275.4081 15.08838358 72446,6917.885,95.438,540.588,538.913,0.0
